start=new Date('2022-10-29T00:00:00.000Z').valueOf();
sats=[{"APOAPSIS":"549.116","RA_OF_ASC_NODE":"304.2043","MEAN_MOTION_DOT":"0.00000064","FILE":"3637111","TLE_LINE1":"1 48473U 21040AX  22301.71353500  .00000064  00000-0  23237-4 0  9996","LAUNCH_DATE":"2021-05-09","SEMIMAJOR_AXIS":"6925.323","MEAN_ELEMENT_THEORY":"SGP4","OBJECT_NAME":"STARLINK-2658","CENTER_NAME":"EARTH","COUNTRY_CODE":"US","TIME_SYSTEM":"UTC","SITE":"AFETR","PERIOD":"95.592","CLASSIFICATION_TYPE":"U","MEAN_MOTION":"15.06408349","OBJECT_TYPE":"PAYLOAD","ARG_OF_PERICENTER":"41.0847","EPOCH":"2022-10-28T17:07:29.424000","MEAN_ANOMALY":"319.0351","NORAD_CAT_ID":"48473","EPHEMERIS_TYPE":"0","REV_AT_EPOCH":"8140","RCS_SIZE":"LARGE","REF_FRAME":"TEME","OBJECT_ID":"2021-040AX","ECCENTRICITY":"0.00027840","MEAN_MOTION_DDOT":"0.0000000000000","TLE_LINE2":"2 48473  53.0554 304.2043 0002784  41.0847 319.0351 15.06408349 81406","GP_ID":"216407195","DECAY_DATE":null,"BSTAR":"0.00002323700000","INCLINATION":"53.0554","ELEMENT_SET_NO":"999","PERIAPSIS":"545.260"},{"EPHEMERIS_TYPE":"0","REV_AT_EPOCH":"8135","MEAN_ANOMALY":"326.6279","EPOCH":"2022-10-28T09:57:33.341472","ARG_OF_PERICENTER":"33.4878","NORAD_CAT_ID":"48474","OBJECT_TYPE":"PAYLOAD","CLASSIFICATION_TYPE":"U","MEAN_MOTION":"15.06401427","PERIOD":"95.592","ELEMENT_SET_NO":"999","PERIAPSIS":"545.371","INCLINATION":"53.0552","BSTAR":"0.00005504700000","DECAY_DATE":null,"GP_ID":"216374445","MEAN_MOTION_DDOT":"0.0000000000000","TLE_LINE2":"2 48474  53.0552 305.5676 0002655  33.4878 326.6279 15.06401427 81354","ECCENTRICITY":"0.00026550","OBJECT_ID":"2021-040AY","REF_FRAME":"TEME","RCS_SIZE":"LARGE","CENTER_NAME":"EARTH","MEAN_ELEMENT_THEORY":"SGP4","OBJECT_NAME":"STARLINK-2697","SEMIMAJOR_AXIS":"6925.344","LAUNCH_DATE":"2021-05-09","TLE_LINE1":"1 48474U 21040AY  22301.41496923  .00000538  00000-0  55047-4 0  9991","FILE":"3636776","MEAN_MOTION_DOT":"0.00000538","RA_OF_ASC_NODE":"305.5676","APOAPSIS":"549.048","SITE":"AFETR","TIME_SYSTEM":"UTC","COUNTRY_CODE":"US"},{"EPHEMERIS_TYPE":"0","REV_AT_EPOCH":"8134","EPOCH":"2022-10-28T07:39:33.774624","ARG_OF_PERICENTER":"43.5375","NORAD_CAT_ID":"48475","MEAN_ANOMALY":"316.5816","MEAN_MOTION":"15.06403929","CLASSIFICATION_TYPE":"U","OBJECT_TYPE":"PAYLOAD","PERIOD":"95.592","INCLINATION":"53.0543","BSTAR":"0.00008580300000","ELEMENT_SET_NO":"999","PERIAPSIS":"545.425","DECAY_DATE":null,"GP_ID":"216374695","ECCENTRICITY":"0.00025650","TLE_LINE2":"2 48475  53.0543 306.0017 0002565  43.5375 316.5816 15.06403929 81347","MEAN_MOTION_DDOT":"0.0000000000000","RCS_SIZE":"LARGE","REF_FRAME":"TEME","OBJECT_ID":"2021-040AZ","CENTER_NAME":"EARTH","SEMIMAJOR_AXIS":"6925.337","MEAN_ELEMENT_THEORY":"SGP4","OBJECT_NAME":"STARLINK-2619","FILE":"3636776","TLE_LINE1":"1 48475U 21040AZ  22301.31914091  .00000996  00000-0  85803-4 0  9993","LAUNCH_DATE":"2021-05-09","APOAPSIS":"548.978","RA_OF_ASC_NODE":"306.0017","MEAN_MOTION_DOT":"0.00000996","TIME_SYSTEM":"UTC","SITE":"AFETR","COUNTRY_CODE":"US"},{"GP_ID":"216406446","DECAY_DATE":null,"PERIAPSIS":"545.378","ELEMENT_SET_NO":"999","INCLINATION":"53.0555","BSTAR":"0.00004577500000","RCS_SIZE":"LARGE","OBJECT_ID":"2021-040BA","REF_FRAME":"TEME","ECCENTRICITY":"0.00026290","TLE_LINE2":"2 48476  53.0555 304.1038 0002629  41.8029 318.3160 15.06404996 81405","MEAN_MOTION_DDOT":"0.0000000000000","ARG_OF_PERICENTER":"41.8029","NORAD_CAT_ID":"48476","EPOCH":"2022-10-28T17:44:38.144832","MEAN_ANOMALY":"318.3160","EPHEMERIS_TYPE":"0","REV_AT_EPOCH":"8140","PERIOD":"95.592","CLASSIFICATION_TYPE":"U","MEAN_MOTION":"15.06404996","OBJECT_TYPE":"PAYLOAD","SITE":"AFETR","TIME_SYSTEM":"UTC","COUNTRY_CODE":"US","OBJECT_NAME":"STARLINK-2723","MEAN_ELEMENT_THEORY":"SGP4","SEMIMAJOR_AXIS":"6925.333","CENTER_NAME":"EARTH","APOAPSIS":"549.019","MEAN_MOTION_DOT":"0.00000400","RA_OF_ASC_NODE":"304.1038","TLE_LINE1":"1 48476U 21040BA  22301.73933038  .00000400  00000-0  45775-4 0  9996","FILE":"3637111","LAUNCH_DATE":"2021-05-09"},{"PERIOD":"95.591","MEAN_MOTION":"15.06412258","CLASSIFICATION_TYPE":"U","OBJECT_TYPE":"PAYLOAD","EPOCH":"2022-10-28T17:23:24.771264","NORAD_CAT_ID":"48478","MEAN_ANOMALY":"328.9207","ARG_OF_PERICENTER":"31.1957","REV_AT_EPOCH":"8140","EPHEMERIS_TYPE":"0","RCS_SIZE":"LARGE","OBJECT_ID":"2021-040BC","REF_FRAME":"TEME","ECCENTRICITY":"0.00029550","TLE_LINE2":"2 48478  53.0532 304.1736 0002955  31.1957 328.9207 15.06412258 81400","MEAN_MOTION_DDOT":"0.0000000000000","GP_ID":"216406696","DECAY_DATE":null,"PERIAPSIS":"545.130","ELEMENT_SET_NO":"999","INCLINATION":"53.0532","BSTAR":"0.00026881000000","APOAPSIS":"549.222","MEAN_MOTION_DOT":"0.00003726","RA_OF_ASC_NODE":"304.1736","TLE_LINE1":"1 48478U 02032DG  22301.72459226  .00003726  00000-0  26881-3 0  9999","FILE":"3637111","LAUNCH_DATE":"2021-05-09","MEAN_ELEMENT_THEORY":"SGP4","OBJECT_NAME":"STARLINK-2728","SEMIMAJOR_AXIS":"6925.311","CENTER_NAME":"EARTH","COUNTRY_CODE":"US","SITE":"AFETR","TIME_SYSTEM":"UTC"},{"MEAN_ELEMENT_THEORY":"SGP4","OBJECT_NAME":"STARLINK-2755","SEMIMAJOR_AXIS":"6925.321","CENTER_NAME":"EARTH","APOAPSIS":"548.646","MEAN_MOTION_DOT":"0.00000968","RA_OF_ASC_NODE":"304.1966","TLE_LINE1":"1 48479U 21040BD  22301.72090664  .00000968  00000-0  83867-4 0  9990","FILE":"3637111","LAUNCH_DATE":"2021-05-09","SITE":"AFETR","TIME_SYSTEM":"UTC","COUNTRY_CODE":"US","MEAN_ANOMALY":"316.7175","EPOCH":"2022-10-28T17:18:06.333696","NORAD_CAT_ID":"48479","ARG_OF_PERICENTER":"43.3980","REV_AT_EPOCH":"8140","EPHEMERIS_TYPE":"0","PERIOD":"95.592","CLASSIFICATION_TYPE":"U","MEAN_MOTION":"15.06409071","OBJECT_TYPE":"PAYLOAD","GP_ID":"216407947","DECAY_DATE":null,"ELEMENT_SET_NO":"999","PERIAPSIS":"545.725","INCLINATION":"53.0540","BSTAR":"0.00008386700000","RCS_SIZE":"LARGE","OBJECT_ID":"2021-040BD","REF_FRAME":"TEME","ECCENTRICITY":"0.00021090","TLE_LINE2":"2 48479  53.0540 304.1966 0002109  43.3980 316.7175 15.06409071 81405","MEAN_MOTION_DDOT":"0.0000000000000"},{"REF_FRAME":"TEME","OBJECT_ID":"2021-040BE","RCS_SIZE":"LARGE","TLE_LINE2":"2 48480  53.0559 314.1294 0002761  43.1356 316.9849 15.06397080 81261","MEAN_MOTION_DDOT":"0.0000000000000","ECCENTRICITY":"0.00027610","GP_ID":"216407697","DECAY_DATE":null,"INCLINATION":"53.0559","BSTAR":"-0.00008952600000","ELEMENT_SET_NO":"999","PERIAPSIS":"545.310","PERIOD":"95.592","OBJECT_TYPE":"PAYLOAD","CLASSIFICATION_TYPE":"U","MEAN_MOTION":"15.06397080","NORAD_CAT_ID":"48480","ARG_OF_PERICENTER":"43.1356","EPOCH":"2022-10-28T17:36:39.163104","MEAN_ANOMALY":"316.9849","REV_AT_EPOCH":"8126","EPHEMERIS_TYPE":"0","COUNTRY_CODE":"US","TIME_SYSTEM":"UTC","SITE":"AFETR","RA_OF_ASC_NODE":"314.1294","MEAN_MOTION_DOT":"-0.00001615","APOAPSIS":"549.135","LAUNCH_DATE":"2021-05-09","FILE":"3637111","TLE_LINE1":"1 48480U 21040BE  22301.73378661 -.00001615  00000-0 -89526-4 0  9999","SEMIMAJOR_AXIS":"6925.358","OBJECT_NAME":"STARLINK-2690","MEAN_ELEMENT_THEORY":"SGP4","CENTER_NAME":"EARTH"},{"LAUNCH_DATE":"2021-05-09","FILE":"3637111","TLE_LINE1":"1 48481U 21040BF  22301.77530330  .00001538  00000-0  12217-3 0  9991","RA_OF_ASC_NODE":"314.2313","MEAN_MOTION_DOT":"0.00001538","APOAPSIS":"548.924","CENTER_NAME":"EARTH","SEMIMAJOR_AXIS":"6925.336","MEAN_ELEMENT_THEORY":"SGP4","OBJECT_NAME":"STARLINK-2706","COUNTRY_CODE":"US","TIME_SYSTEM":"UTC","SITE":"AFETR","OBJECT_TYPE":"PAYLOAD","CLASSIFICATION_TYPE":"U","MEAN_MOTION":"15.06404010","PERIOD":"95.592","EPHEMERIS_TYPE":"0","REV_AT_EPOCH":"8126","EPOCH":"2022-10-28T18:36:26.205120","ARG_OF_PERICENTER":"45.3259","MEAN_ANOMALY":"314.7933","NORAD_CAT_ID":"48481","TLE_LINE2":"2 48481  53.0543 314.2313 0002487  45.3259 314.7933 15.06404010 81261","MEAN_MOTION_DDOT":"0.0000000000000","ECCENTRICITY":"0.00024870","REF_FRAME":"TEME","OBJECT_ID":"2021-040BF","RCS_SIZE":"LARGE","INCLINATION":"53.0543","BSTAR":"0.00012217000000","ELEMENT_SET_NO":"999","PERIAPSIS":"545.479","DECAY_DATE":null,"GP_ID":"216406946"},{"CENTER_NAME":"EARTH","SEMIMAJOR_AXIS":"6925.349","OBJECT_NAME":"STARLINK-2525","MEAN_ELEMENT_THEORY":"SGP4","LAUNCH_DATE":"2021-05-09","FILE":"3636776","TLE_LINE1":"1 48482U 21040BG  22301.34401621  .00000092  00000-0  25054-4 0  9993","RA_OF_ASC_NODE":"315.8877","MEAN_MOTION_DOT":"0.00000092","APOAPSIS":"548.563","TIME_SYSTEM":"UTC","SITE":"AFETR","COUNTRY_CODE":"US","REV_AT_EPOCH":"8120","EPHEMERIS_TYPE":"0","ARG_OF_PERICENTER":"56.0907","EPOCH":"2022-10-28T08:15:23.000544","MEAN_ANOMALY":"304.0267","NORAD_CAT_ID":"48482","OBJECT_TYPE":"PAYLOAD","MEAN_MOTION":"15.06399735","CLASSIFICATION_TYPE":"U","PERIOD":"95.592","INCLINATION":"53.0560","BSTAR":"0.00002505400000","PERIAPSIS":"545.866","ELEMENT_SET_NO":"999","GP_ID":"216375197","DECAY_DATE":null,"MEAN_MOTION_DDOT":"0.0000000000000","TLE_LINE2":"2 48482  53.0560 315.8877 0001947  56.0907 304.0267 15.06399735 81205","ECCENTRICITY":"0.00019470","REF_FRAME":"TEME","OBJECT_ID":"2021-040BG","RCS_SIZE":"LARGE"},{"PERIOD":"95.592","CLASSIFICATION_TYPE":"U","MEAN_MOTION":"15.06404309","OBJECT_TYPE":"PAYLOAD","ARG_OF_PERICENTER":"37.1741","NORAD_CAT_ID":"48483","MEAN_ANOMALY":"322.9425","EPOCH":"2022-10-28T17:43:19.052544","REV_AT_EPOCH":"8126","EPHEMERIS_TYPE":"0","RCS_SIZE":"LARGE","REF_FRAME":"TEME","OBJECT_ID":"2021-040BH","ECCENTRICITY":"0.00025680","MEAN_MOTION_DDOT":"0.0000000000000","TLE_LINE2":"2 48483  53.0545 314.1148 0002568  37.1741 322.9425 15.06404309 81263","GP_ID":"216407448","DECAY_DATE":null,"INCLINATION":"53.0545","BSTAR":"0.00015699000000","PERIAPSIS":"545.422","ELEMENT_SET_NO":"999","APOAPSIS":"548.979","RA_OF_ASC_NODE":"314.1148","MEAN_MOTION_DOT":"0.00002058","FILE":"3637111","TLE_LINE1":"1 48483U 21040BH  22301.73841496  .00002058  00000-0  15699-3 0  9992","LAUNCH_DATE":"2021-05-09","SEMIMAJOR_AXIS":"6925.335","OBJECT_NAME":"STARLINK-2531","MEAN_ELEMENT_THEORY":"SGP4","CENTER_NAME":"EARTH","COUNTRY_CODE":"US","TIME_SYSTEM":"UTC","SITE":"AFETR"}];
